{
  "type": "FeatureCollection",
  "features": [
    {
      "type": "Feature",
      "properties": {
        "norad_id": 41890,
        "name": "CYGFM07",
        "group": "weather",
        "lat": 3.833290780413247,
        "lon": 68.00261633747185,
        "alt_km": 421.75804346401674,
        "timestamp": "2025-12-06T11:28:10.672279+00:00",
        "meta_object_name": "CYGFM07",
        "meta_object_id": "2016-078G",
        "meta_epoch": "2025-12-05T23:04:17.321376",
        "meta_mean_motion": 15.49591135,
        "meta_eccentricity": 0.00091895,
        "meta_inclination": 34.9479,
        "meta_ra_of_asc_node": 65.8818,
        "meta_arg_of_pericenter": 154.816,
        "meta_mean_anomaly": 205.3011,
        "meta_ephemeris_type": 0,
        "meta_classification_type": "U",
        "meta_norad_cat_id": 41890,
        "meta_element_set_no": 999,
        "meta_rev_at_epoch": 49890,
        "meta_bstar": 0.00051239643,
        "meta_mean_motion_dot": 0.00029304,
        "meta_mean_motion_ddot": 0,
        "tle_line1": "1 41890U 16078G   25339.96131159  .00029304  00000+0  51240-3 0  9993",
        "tle_line2": "2 41890  34.9479  65.8818 0009189 154.8160 205.3011 15.49591135498903"
      },
      "geometry": {
        "type": "Point",
        "coordinates": [
          68.00261633747185,
          3.833290780413247
        ]
      }
    },
    {
      "type": "Feature",
      "properties": {
        "norad_id": 41891,
        "name": "CYGFM03",
        "group": "weather",
        "lat": -13.4341091102738,
        "lon": -95.58354536543366,
        "alt_km": 415.53736601167384,
        "timestamp": "2025-12-06T11:28:10.672290+00:00",
        "meta_object_name": "CYGFM03",
        "meta_object_id": "2016-078H",
        "meta_epoch": "2025-12-05T16:02:22.835040",
        "meta_mean_motion": 15.49479952,
        "meta_eccentricity": 0.0008383,
        "meta_inclination": 34.9435,
        "meta_ra_of_asc_node": 69.7162,
        "meta_arg_of_pericenter": 138.0826,
        "meta_mean_anomaly": 222.0539,
        "meta_ephemeris_type": 0,
        "meta_classification_type": "U",
        "meta_norad_cat_id": 41891,
        "meta_element_set_no": 999,
        "meta_rev_at_epoch": 49883,
        "meta_bstar": 0.00057747678,
        "meta_mean_motion_dot": 0.00032908,
        "meta_mean_motion_ddot": 0,
        "tle_line1": "1 41891U 16078H   25339.66831985  .00032908  00000+0  57748-3 0  9998",
        "tle_line2": "2 41891  34.9435  69.7162 0008383 138.0826 222.0539 15.49479952498834"
      },
      "geometry": {
        "type": "Point",
        "coordinates": [
          -95.58354536543366,
          -13.4341091102738
        ]
      }
    },
    {
      "type": "Feature",
      "properties": {
        "norad_id": 43010,
        "name": "FENGYUN 3D",
        "group": "weather",
        "lat": 60.74006043438191,
        "lon": -69.71562762165654,
        "alt_km": 820.8902806588767,
        "timestamp": "2025-12-06T11:28:10.672301+00:00",
        "meta_object_name": "FENGYUN 3D",
        "meta_object_id": "2017-072A",
        "meta_epoch": "2025-12-05T23:20:17.360160",
        "meta_mean_motion": 14.19680836,
        "meta_eccentricity": 7.045e-05,
        "meta_inclination": 98.9885,
        "meta_ra_of_asc_node": 306.1817,
        "meta_arg_of_pericenter": 206.137,
        "meta_mean_anomaly": 153.977,
        "meta_ephemeris_type": 0,
        "meta_classification_type": "U",
        "meta_norad_cat_id": 43010,
        "meta_element_set_no": 999,
        "meta_rev_at_epoch": 41757,
        "meta_bstar": 0.00012280621,
        "meta_mean_motion_dot": 2.14e-06,
        "meta_mean_motion_ddot": 0,
        "tle_line1": "1 43010U 17072A   25339.97242315  .00000214  00000+0  12281-3 0  9993",
        "tle_line2": "2 43010  98.9885 306.1817 0000704 206.1370 153.9770 14.19680836417575"
      },
      "geometry": {
        "type": "Point",
        "coordinates": [
          -69.71562762165654,
          60.74006043438191
        ]
      }
    },
    {
      "type": "Feature",
      "properties": {
        "norad_id": 43013,
        "name": "NOAA 20 (JPSS-1)",
        "group": "weather",
        "lat": -37.70781976770583,
        "lon": 89.99793767189942,
        "alt_km": 834.1333023156194,
        "timestamp": "2025-12-06T11:28:10.672312+00:00",
        "meta_object_name": "NOAA 20 (JPSS-1)",
        "meta_object_id": "2017-073A",
        "meta_epoch": "2025-12-05T22:36:13.470912",
        "meta_mean_motion": 14.19522852,
        "meta_eccentricity": 0.00020992,
        "meta_inclination": 98.7589,
        "meta_ra_of_asc_node": 276.3133,
        "meta_arg_of_pericenter": 96.8718,
        "meta_mean_anomaly": 263.2697,
        "meta_ephemeris_type": 0,
        "meta_classification_type": "U",
        "meta_norad_cat_id": 43013,
        "meta_element_set_no": 999,
        "meta_rev_at_epoch": 41705,
        "meta_bstar": 0.00010661768,
        "meta_mean_motion_dot": 1.81e-06,
        "meta_mean_motion_ddot": 0,
        "tle_line1": "1 43013U 17073A   25339.94182258  .00000181  00000+0  10662-3 0  9997",
        "tle_line2": "2 43013  98.7589 276.3133 0002099  96.8718 263.2697 14.19522852417054"
      },
      "geometry": {
        "type": "Point",
        "coordinates": [
          89.99793767189942,
          -37.70781976770583
        ]
      }
    },
    {
      "type": "Feature",
      "properties": {
        "norad_id": 43226,
        "name": "GOES 17",
        "group": "weather",
        "lat": 0.41075344017159915,
        "lon": 158.01415084559378,
        "alt_km": 35792.40754519611,
        "timestamp": "2025-12-06T11:28:10.672323+00:00",
        "meta_object_name": "GOES 17",
        "meta_object_id": "2018-022A",
        "meta_epoch": "2025-12-05T21:49:55.013664",
        "meta_mean_motion": 1.00270987,
        "meta_eccentricity": 0.00035128,
        "meta_inclination": 0.4412,
        "meta_ra_of_asc_node": 89.2602,
        "meta_arg_of_pericenter": 183.2356,
        "meta_mean_anomaly": 40.4433,
        "meta_ephemeris_type": 0,
        "meta_classification_type": "U",
        "meta_norad_cat_id": 43226,
        "meta_element_set_no": 999,
        "meta_rev_at_epoch": 2848,
        "meta_bstar": 0,
        "meta_mean_motion_dot": -1.73e-06,
        "meta_mean_motion_ddot": 0,
        "tle_line1": "1 43226U 18022A   25339.90966451 -.00000173  00000+0  00000+0 0  9992",
        "tle_line2": "2 43226   0.4412  89.2602 0003512 183.2356  40.4433  1.00270987 28480"
      },
      "geometry": {
        "type": "Point",
        "coordinates": [
          158.01415084559378,
          0.41075344017159915
        ]
      }
    },
    {
      "type": "Feature",
      "properties": {
        "norad_id": 43491,
        "name": "FENGYUN 2H",
        "group": "weather",
        "lat": -2.312051061004953,
        "lon": -33.07136971396372,
        "alt_km": 35784.56358023198,
        "timestamp": "2025-12-06T11:28:10.672335+00:00",
        "meta_object_name": "FENGYUN 2H",
        "meta_object_id": "2018-050A",
        "meta_epoch": "2025-12-05T20:55:16.016160",
        "meta_mean_motion": 1.00271271,
        "meta_eccentricity": 0.00029396,
        "meta_inclination": 2.5321,
        "meta_ra_of_asc_node": 81.4064,
        "meta_arg_of_pericenter": 164.5694,
        "meta_mean_anomaly": 222.1234,
        "meta_ephemeris_type": 0,
        "meta_classification_type": "U",
        "meta_norad_cat_id": 43491,
        "meta_element_set_no": 999,
        "meta_rev_at_epoch": 2750,
        "meta_bstar": 0,
        "meta_mean_motion_dot": -1.22e-06,
        "meta_mean_motion_ddot": 0,
        "tle_line1": "1 43491U 18050A   25339.87171315 -.00000122  00000+0  00000+0 0  9994",
        "tle_line2": "2 43491   2.5321  81.4064 0002939 164.5694 222.1234  1.00271271 27508"
      },
      "geometry": {
        "type": "Point",
        "coordinates": [
          -33.07136971396372,
          -2.312051061004953
        ]
      }
    },
    {
      "type": "Feature",
      "properties": {
        "norad_id": 43689,
        "name": "METOP-C",
        "group": "weather",
        "lat": -44.7704295882659,
        "lon": 47.07373500153338,
        "alt_km": 827.0824445620892,
        "timestamp": "2025-12-06T11:28:10.672346+00:00",
        "meta_object_name": "METOP-C",
        "meta_object_id": "2018-087A",
        "meta_epoch": "2025-12-05T22:10:06.771072",
        "meta_mean_motion": 14.2150786,
        "meta_eccentricity": 0.00016193,
        "meta_inclination": 98.6939,
        "meta_ra_of_asc_node": 37.7974,
        "meta_arg_of_pericenter": 53.8046,
        "meta_mean_anomaly": 306.3281,
        "meta_ephemeris_type": 0,
        "meta_classification_type": "U",
        "meta_norad_cat_id": 43689,
        "meta_element_set_no": 999,
        "meta_rev_at_epoch": 36737,
        "meta_bstar": 0.00014747547,
        "meta_mean_motion_dot": 2.79e-06,
        "meta_mean_motion_ddot": 0,
        "tle_line1": "1 43689U 18087A   25339.92368948  .00000279  00000+0  14748-3 0  9999",
        "tle_line2": "2 43689  98.6939  37.7974 0001619  53.8046 306.3281 14.21507860367379"
      },
      "geometry": {
        "type": "Point",
        "coordinates": [
          47.07373500153338,
          -44.7704295882659
        ]
      }
    }
  ]
}